BEESAT-4                
1 41619U 16040W   22292.35998750  .00020394  00000+0  60459-3 0  9999
2 41619  97.2025 339.8462 0009198  42.5041 317.6913 15.34825568339705
CAS-2T & KS-1Q          
1 41847U 16066G   22292.20791958  .00001489  00000+0  23257-3 0  9994
2 41847  98.5380 356.6810 0362753 199.4515 159.2526 14.38805483312143
NAYIF-1 (EO-88)         
1 42017U 17008BX  22291.98227799  .00025546  00000+0  66120-3 0  9998
2 42017  97.2551 356.5280 0005124 150.5755 209.5781 15.39038993316040
ZHUHAI-1 02 (CAS-4B)    
1 42759U 17034B   22292.48877740  .00007579  00000+0  43496-3 0  9990
2 42759  43.0186   8.6066 0010508 347.8482 131.3595 15.12879583295133
ZHUHAI-1 01 (CAS-4A)    
1 42761U 17034D   22292.51970714  .00007551  00000+0  43232-3 0  9990
2 42761  43.0188   7.1323 0010807 347.6113 143.5738 15.12968314295145
MAX VALIER SAT          
1 42778U 17036P   22292.36691100  .00011242  00000+0  40004-3 0  9998
2 42778  97.1931 329.2722 0008695 239.2688 120.7697 15.29090712295827
RADFXSAT (FOX-1B)       
1 43017U 17073E   22292.48617789  .00003203  00000+0  23944-3 0  9992
2 43017  97.6567 181.5646 0246574 141.0663 220.8599 14.82307456265487
FOX-1D (AO-92)          
1 43137U 18004AC  22292.19223108  .00013253  00000+0  43180-3 0  9996
2 43137  97.3583   6.3468 0005985 284.3871  75.6706 15.31938724265278
DIWATA-2B               
1 43678U 18084H   22292.56546441  .00001833  00000+0  18471-3 0  9999
2 43678  97.9890  67.4309 0008655 231.6999 128.3390 14.92404969216366
ES'HAIL 2               
1 43700U 18090A   22292.44910431  .00000146  00000+0  00000+0 0  9994
2 43700   0.0129 255.8861 0002753 346.5740 332.9504  1.00273189 14270
FOX-1CLIFF (AO-95)      
1 43770U 18099N   22292.40675826  .00003364  00000+0  29642-3 0  9994
2 43770  97.6091 355.4952 0012873 213.7098 146.3306 14.97057834211554
ITASAT 1                
1 43786U 18099AE  22292.19036449  .00003227  00000+0  28410-3 0  9999
2 43786  97.6102 356.2660 0014113 207.4517 152.5961 14.97110275211560
JY1SAT (JO-97)          
1 43803U 18099AX  22292.42969717  .00002918  00000+0  25316-3 0  9996
2 43803  97.6066 356.2988 0013906 207.9385 152.1093 14.97749475211628
UWE-4                   
1 43880U 18111E   22292.53928997  .00003688  00000+0  30985-3 0  9996
2 43880  97.6549 196.6554 0010173 260.0612  99.9463 14.98879457208282
NEXUS (FO-99)           
1 43937U 19003F   22292.07283151  .00017249  00000+0  52434-3 0  9996
2 43937  97.1209 320.7725 0020846  73.6726 286.6808 15.33888034208903
PSAT2 (NO-104)          
1 44354U 19036R   22292.54777841  .00088830 -47120-5  56616-3 0  9993
2 44354  28.5240  29.2236 0172684 304.5164  53.9244 15.56932856183917
JAISAT-1                
1 44419U 19038F   22292.47959480  .00011627  00000+0  54886-3 0  9996
2 44419  97.6503 263.8501 0020571  66.0353 294.3032 15.19421252181877
DUCHIFAT-3              
1 44854U 19089C   22292.54817204  .00006850  00000+0  51832-3 0  9990
2 44854  36.9655  84.2471 0006203 154.1470 281.9641 15.01985888156590
CAS-6 (TIANQIN 1)       
1 44881U 19093C   22292.55839002  .00001097  00000+0  14511-3 0  9997
2 44881  97.8844   9.9426 0015798 138.3518 221.8899 14.81879734153152
RS-44 & BREEZE-KM R/B   
1 44909U 19096E   22292.34457700  .00000022  00000+0  42142-4 0  9998
2 44909  82.5200 147.9898 0218001  30.2882 331.0610 12.79715965131355
ORBITAL FACTORY 2 (OF-2)
1 45113U 19071C   22292.21630959  .00045745  00000+0  71963-3 0  9997
2 45113  51.6347 167.6107 0008375 250.0644 109.9445 15.53104489152554
HUSKYSAT-1 (HO-107)     
1 45119U 19071J   22292.26324695  .00038729  00000+0  65646-3 0  9990
2 45119  51.6355 168.6397 0008383 248.3323 111.6774 15.51097135152534
BY70-2                  
1 45857U 20042B   22292.58305472  .00012656  00000+0  16180-2 0  9995
2 45857  97.9480   8.3110 0011146  78.5811 281.6621 14.81475597123827
SALSAT                  
1 46495U 20068K   22292.38140457  .00003357  00000+0  23981-3 0  9996
2 46495  97.7399 233.8138 0015340 212.5035 147.5248 15.05102622112822
BY70-3                  
1 46839U 20079N   22292.51566123  .00043540  00000+0  82170-3 0  9990
2 46839  97.1849   3.3449 0004486 225.4126 262.7091 15.48331544109394
RADFXSAT-2 (AO-109)     
1 47311U 21002C   22292.48701557  .00012343  00000+0  45695-3 0  9999
2 47311  60.6840 254.6933 0036366  56.1121 304.3418 15.27461101 97393
UVSQ-SAT                
1 47438U 21006AB  22292.40949964  .00007293  00000+0  36977-3 0  9992
2 47438  97.4234 348.8863 0011093 197.1460 162.9401 15.17191811 96068
DIY-1 (ARDUIQUBE)       
1 47963U 21022AH  22292.23841170  .00024246  00000+0  11967-2 0  9992
2 47963  97.5178 192.3743 0018341  68.8997 291.4195 15.17738724 85695
XW-3 (CAS-9)            
1 50466U 21131B   22292.46868667  .00000302  00000+0  11315-3 0  9995
2 50466  98.5727   9.6159 0005543 133.4864 226.6785 14.38552351 42747
TEVEL-3                 
1 50988U 22002E   22292.46667440  .00012582  00000+0  65387-3 0  9999
2 50988  97.4681 357.4170 0009227   4.0955 121.9807 15.16184079 42193
TEVEL-8                 
1 50989U 22002F   22292.47608837  .00012460  00000+0  64863-3 0  9999
2 50989  97.4709 357.4590 0008956   3.2095 122.8106 15.16128890 42196
TEVEL-5                 
1 50998U 22002Q   22292.49908863  .00013005  00000+0  66562-3 0  9997
2 50998  97.4673 357.6176 0010085 358.2527  50.9889 15.16706874 42213
TEVEL-6                 
1 50999U 22002R   22292.44722354  .00013099  00000+0  67030-3 0  9996
2 50999  97.4681 357.5650 0010138 358.2318 131.9902 15.16711632 42209
TEVEL-1                 
1 51013U 22002AF  22292.47093727  .00012520  00000+0  65123-3 0  9991
2 51013  97.4684 357.3925 0008994   3.6574 122.0957 15.16155186 42190
TEVEL-7                 
1 51062U 22002CG  22292.47789950  .00012488  00000+0  65012-3 0  9995
2 51062  97.4705 357.4439 0009026   2.4410 122.7553 15.16124476 42199
TEVEL-4                 
1 51063U 22002CH  22292.47913284  .00012377  00000+0  64469-3 0  9997
2 51063  97.4698 357.4380 0008905   2.5025 122.5911 15.16110217 42198
TEVEL-2                 
1 51069U 22002CP  22292.46824096  .00012535  00000+0  65156-3 0  9994
2 51069  97.4681 357.4025 0008948   3.9928 121.9688 15.16177793 42192
GREENCUBE               
1 53106U 22080B   22291.96147202 -.00000003  00000+0  00000+0 0  9996
2 53106  70.1713  43.5209 0008810 236.5247 123.4571  6.42557698  6253
YUZGU 9 (RS3S)          
1 53308U 98067TT  22292.47546547  .00074803  00000+0  92885-3 0  9994
2 53308  51.6381  78.4740 0005199 315.4380  44.6195 15.59312708 14031
YUZGU 7 (RS1S)          
1 53309U 98067TU  22292.46831016  .00076782  00000+0  94002-3 0  9993
2 53309  51.6376  78.4227 0005284 323.1551  36.9079 15.59673904 13983
YUZGU 11 (RS5S)         
1 53310U 98067TV  22292.47475280  .00074207  00000+0  92046-3 0  9999
2 53310  51.6379  78.4696 0004894 322.6742  37.3910 15.59346184 14011
YUZGU 12 (RS6S)         
1 53311U 98067TW  22292.45888846  .00072118  00000+0  87355-3 0  9990
2 53311  51.6374  78.3588 0005583 310.2480  49.8024 15.59979045 14038
TSIOLKOVSKY-RYAZAN 1 (*)
1 53312U 98067TX  22292.46648789  .00076764  00000+0  93993-3 0  9998
2 53312  51.6384  78.4134 0005250 326.1868  33.8790 15.59670552 13971
TSIOLKOVSKY-RYAZAN 2 (*)
1 53313U 98067TY  22292.46434895  .00074689  00000+0  91571-3 0  9994
2 53313  51.6384  78.3998 0004781 324.2557  35.8116 15.59650656 14025
YUZGU 10 (RS4S)         
1 53321U 98067TZ  22292.47333650  .00074935  00000+0  92372-3 0  9995
2 53321  51.6380  78.4602 0005200 319.0604  40.9997 15.59504412 14027
RS29S (SXC3-2110 CYCLO*)
1 53373U 22096D   22292.52051015  .00017074  00000+0  66656-3 0  9996
2 53373  97.4280 193.4755 0001092  41.3137  84.7877 15.25970454 10855
RS32S (SXC3-212 MONITO*)
1 53374U 22096E   22292.51185727  .00017095  00000+0  66508-3 0  9993
2 53374  97.4280 193.4781 0000881  66.6601  40.3559 15.26085868 10858
RS34S (SXC3-218 KUZBAS*)
1 53375U 22096F   22292.51481439  .00013617  00000+0  53425-3 0  9993
2 53375  97.4285 193.4745 0000609  78.0386  30.3143 15.25856498 10851
RS23S (SXC3-21 UTMN)    
1 53376U 22096G   22292.51291203  .00013786  00000+0  54015-3 0  9995
2 53376  97.4279 193.4774 0000943  61.4503  44.3629 15.25896889 10857
RS28S (SXC3-214 MIET-A*)
1 53377U 22096H   22292.38155861  .00014120  00000+0  55296-3 0  9995
2 53377  97.4281 193.3502 0000795  43.5453  68.2076 15.25908779 10830
RS26S (KAI-1)           
1 53378U 22096J   22292.51178597  .00012053  00000+0  47403-3 0  9996
2 53378  97.4282 193.4777 0000621  71.3758  32.4342 15.25805708 10851
RS19S (SXC3-219 ISOI)   
1 53381U 22096M   22292.55916991  .00014059  00000+0  54273-3 0  9993
2 53381  97.4271 193.5723 0003923 169.1371 312.3179 15.26382951 10860
RS21S (CUBESX-HSE-2)    
1 53383U 22096P   22292.55338240  .00014065  00000+0  54257-3 0  9999
2 53383  97.4282 193.5725 0004129 169.9704 291.6055 15.26405428 10860
RS30S (SXC3-217 SIREN)  
1 53384U 22096Q   22292.55713345  .00013261  00000+0  51239-3 0  9997
2 53384  97.4280 193.5771 0004239 171.5259 310.7827 15.26363764 10862
RS20S (GEOSCAN-EDELVEIS)
1 53385U 22096R   22292.54427377  .00017522  00000+0  66503-3 0  9998
2 53385  97.4278 193.5930 0004740 172.5970 310.0861 15.26894534 10893
RS33S (SXC3-215 VIZARD) 
1 53386U 22096S   22292.52699869  .00021268  00000+0  79320-3 0  9997
2 53386  97.4280 193.6116 0005096 177.7283 293.0578 15.27431298 10882
